0 SATCOM K1 R/B(PAM-D2)
1 16483U 86003C   13282.72795042  .00000506  00000-0  42659-3 0  7023
2 16483 026.7945 218.2452 7129394 275.5432 231.1442 02.43533055240096
0 SATCOM K1 R/B(PAM-D2)
1 16483U 86003C   13285.32430927  .00000237  00000-0  41297-3 0  7039
2 16483 026.7931 217.2001 7128613 277.2672 347.4281 02.43536732240152
0 SATCOM K1 R/B(PAM-D2)
1 16483U 86003C   13286.50677578  .00000264  00000-0  43218-3 0  7041
2 16483 026.7928 216.7259 7128204 278.0502 304.1344 02.43538634240180
0 SATCOM K1 R/B(PAM-D2)
1 16483U 86003C   13292.20034201  .00000667  00000-0  43985-3 0  7054
2 16483 026.7917 214.4481 7126495 281.8096 255.9754 02.43546568240329
0 SATCOM K1 R/B(PAM-D2)
1 16483U 86003C   13293.53444368  .00000632  00000-0  44395-3 0  7069
2 16483 026.7917 213.9143 7126080 282.6911 345.6679 02.43547943240357
